STARLINK-3121           
1 49428U 21104W   23356.06048814  .00000652  00000+0  59074-4 0  9996
2 49428  53.2161 259.1133 0001709  69.5292 290.5883 15.08839361116569
STARLINK-3138           
1 49430U 21104Y   23356.03572242  .00000226  00000+0  32311-4 0  9995
2 49430  53.2169 259.5910 0001603 112.6041 247.5120 15.08842909116559
STARLINK-3153           
1 49431U 21104Z   23356.05780277  .00001925  00000+0  13902-3 0  9998
2 49431  53.2154 259.4445 0001297  75.1463 284.9673 15.08839586116551
STARLINK-3158           
1 49432U 21104AA  23355.97405008  .00002905  00000+0  20047-3 0  9992
2 49432  53.2157 249.5917 0001438  86.6912 273.4244 15.08847086116687
STARLINK-3079           
1 49433U 21104AB  23355.97401506  .00001111  00000+0  87856-4 0  9992
2 49433  53.2160 239.5878 0001437 100.5665 259.5489 15.08843167117916
STARLINK-3134           
1 49434U 21104AC  23356.02003118  .00001530  00000+0  11421-3 0  9996
2 49434  53.2171 259.5396 0001543  62.0265 298.0883 15.08842770117636
STARLINK-3117           
1 49435U 21104AD  23355.97865189  .00000541  00000+0  52051-4 0  9990
2 49435  53.2168 239.5649 0001450 103.2127 256.9027 15.08842688116825
STARLINK-3049           
1 49436U 21104AE  23355.91145411  .00000191  00000+0  30118-4 0  9995
2 49436  53.2166 239.8696 0001702 115.5373 244.5795 15.08840423117885
STARLINK-3130           
1 49437U 21104AF  23355.97033750  .00000274  00000+0  35338-4 0  9995
2 49437  53.2165 239.6071 0001442 105.1953 254.9199 15.08838350116822
STARLINK-3044           
1 49438U 21104AG  23355.96024073  .00000262  00000+0  34554-4 0  9999
2 49438  53.2156 239.5835 0001464 115.1632 244.9512 15.08845532116827
STARLINK-3108           
1 49439U 21104AH  23355.94921301  .00001778  00000+0  12979-3 0  9997
2 49439  53.2160 239.7093 0001539  70.2380 289.8778 15.08842617117919
STARLINK-3105           
1 49440U 21104AJ  23355.96297376  .00001510  00000+0  11292-3 0  9990
2 49440  53.2163 239.6387 0001478  94.9353 265.1808 15.08846051116820
STARLINK-3128           
1 49441U 21104AK  23356.01081815  .00000176  00000+0  29146-4 0  9992
2 49441  53.2163 239.4278 0001463  83.8719 276.2440 15.08839127116837
STARLINK-3098           
1 49442U 21104AL  23355.95929609  .00000368  00000+0  41228-4 0  9995
2 49442  53.2155 239.6532 0001412  86.5708 273.5446 15.08842352116825
STARLINK-3136           
1 49443U 21104AM  23356.00713524  .00003053  00000+0  20981-3 0  9996
2 49443  53.2158 239.4480 0001485  87.5122 272.6040 15.08846677116835
STARLINK-3126           
1 49444U 21104AN  23355.95656805 -.00001886  00000+0 -10045-3 0  9992
2 49444  53.2148 239.6829 0001252 113.8776 246.2348 15.08836600116826
STARLINK-3122           
1 49445U 21104AP  23356.00721902  .00000067  00000+0  22307-4 0  9994
2 49445  53.2166 249.8368 0001665 110.3168 249.8004 15.08842083116687
STARLINK-3099           
1 49446U 21104AQ  23355.95194274  .00002161  00000+0  15384-3 0  9997
2 49446  53.2154 239.6930 0002100  51.1543 308.9636 15.08840347117894
STARLINK-3115           
1 49447U 21104AR  23356.02829723  .00000720  00000+0  63347-4 0  9993
2 49447  53.2153 249.3489 0001469  98.4523 261.6636 15.08837260116692
STARLINK-3097           
1 49448U 21104AS  23355.91149971  .00000250  00000+0  33770-4 0  9996
2 49448  53.2153 249.9219 0001346  97.5765 262.5380 15.08838350117746
STARLINK-3137           
1 49449U 21104AT  23356.02461779 -.00000300  00000+0 -75763-6 0  9991
2 49449  53.2160 249.3610 0001408  89.8090 270.3064 15.08835809116693
STARLINK-3127           
1 49450U 21104AU  23356.03565805  .00000320  00000+0  38214-4 0  9997
2 49450  53.2146 249.3527 0001263  87.4048 272.7089 15.08841892116953
STARLINK-3125           
1 49451U 21104AV  23356.02093727 -.00000065  00000+0  14011-4 0  9992
2 49451  53.2163 249.3825 0001556  98.5395 261.5773 15.08836582116694
STARLINK-3150           
1 49452U 21104AW  23356.01085548 -.00000292  00000+0 -24986-6 0  9991
2 49452  53.2164 249.4597 0001602 112.7970 247.3191 15.08840606116691
STARLINK-3129           
1 49453U 21104AX  23356.02190232  .00000881  00000+0  73414-4 0  9990
2 49453  53.2167 249.4643 0001518  99.6558 260.4606 15.08843321116692
STARLINK-3160           
1 49454U 21104AY  23355.95101786 -.00001154  00000+0 -54422-4 0  9992
2 49454  53.2169 249.6949 0001327  98.1667 261.9476 15.08835560117765
STARLINK-3145           
1 49455U 21104AZ  23356.00253331 -.00000265  00000+0  14469-5 0  9993
2 49455  53.2164 249.4623 0001418  76.2927 283.8223 15.08842605116697
STARLINK-3124           
1 49456U 21104BA  23355.94829805  .00000643  00000+0  58478-4 0  9997
2 49456  53.2170 249.7566 0001685 112.5031 247.6139 15.08839665117754
STARLINK-3132           
1 49457U 21104BB  23355.99981542 -.00000110  00000+0  11200-4 0  9992
2 49457  53.2176 249.4879 0001375 100.5462 259.5685 15.08841750116694
STARLINK-3156           
1 49458U 21104BC  23355.93997306 -.00000578  00000+0 -18215-4 0  9994
2 49458  53.2167 249.7417 0001668 117.1608 242.9554 15.08840360117763
STARLINK-3141           
1 49459U 21104BD  23355.99517108  .00000230  00000+0  32535-4 0  9993
2 49459  53.2159 249.4924 0001336 103.8365 256.2776 15.08840100116696
STARLINK-3140           
1 49460U 21104BE  23355.99149306  .00002602  00000+0  18148-3 0  9994
2 49460  53.2154 249.5092 0001359  88.5068 271.6080 15.08845367116682
STARLINK-3219           
1 49724U 21115A   23355.66307874  .00000245  00000+0  33501-4 0  9991
2 49724  53.2155 181.2062 0001419  85.5807 274.5347 15.08840414113391
STARLINK-3218           
1 49725U 21115B   23355.68514550  .00000327  00000+0  38659-4 0  9995
2 49725  53.2159 180.9872 0001393 104.6490 255.4657 15.08837062113402
STARLINK-3237           
1 49726U 21115C   23354.79657676  .00024417  00000+0  14331-2 0  9999
2 49726  53.2145 194.4008 0002949 162.8279 197.2814 15.11622590113138
STARLINK-3242           
1 49727U 21115D   23354.77893462 -.00000272  00000+0  98618-6 0  9991
2 49727  53.2172 194.9543 0001652 107.1586 252.9587 15.08835605113125
STARLINK-3240           
1 49728U 21115E   23354.84885282  .00000267  00000+0  34861-4 0  9992
2 49728  53.2160 194.6385 0001522 105.5035 254.6125 15.08836038113130
STARLINK-3251           
1 49729U 21115F   23354.84147469  .00000414  00000+0  44102-4 0  9994
2 49729  53.2152 194.5560 0001358 106.3845 253.7296 15.08837029113131
STARLINK-3249           
1 49730U 21115G   23355.87191794  .00000983  00000+0  79817-4 0  9992
2 49730  53.2152 190.2377 0001438  80.1194 279.9960 15.08840812114398
STARLINK-3228           
1 49731U 21115H   23355.84980668 -.00000649  00000+0 -22683-4 0  9996
2 49731  53.2133 190.1440 0001402 105.1700 254.9447 15.08835714114398
STARLINK-3246           
1 49732U 21115J   23355.86180667  .00000823  00000+0  69819-4 0  9994
2 49732  53.2151 190.0604 0001302  90.9529 269.1612 15.08839232114390
STARLINK-3252           
1 49733U 21115K   23355.85717590  .00000777  00000+0  66917-4 0  9999
2 49733  53.2156 190.1111 0001264  87.0107 273.1029 15.08837009114393
STARLINK-3238           
1 49734U 21115L   23355.67777297  .00000726  00000+0  63688-4 0  9996
2 49734  53.2160 180.9362 0001340  95.3713 264.7432 15.08839125113400
STARLINK-3113           
1 49735U 21115M   23355.85813088  .00001095  00000+0  86895-4 0  9991
2 49735  53.2148 190.0778 0001214  97.3801 262.7329 15.08835575114397
STARLINK-3148           
1 49736U 21115N   23355.67407641  .00000683  00000+0  60983-4 0  9998
2 49736  53.2153 180.8146 0001424  93.4602 266.6553 15.08837251113405
STARLINK-3225           
1 49737U 21115P   23355.68145128  .00000677  00000+0  60648-4 0  9990
2 49737  53.2163 180.8974 0001399 100.8390 259.2760 15.08836791113400
STARLINK-3143           
1 49738U 21115Q   23355.62257353  .00000788  00000+0  67609-4 0  9996
2 49738  53.2165 181.1629 0001396  86.6955 273.4197 15.08836468113390
STARLINK-3155           
1 49739U 21115R   23355.86821766  .00001325  00000+0  10133-3 0  9995
2 49739  53.2156 190.0619 0001509  87.7905 272.3260 15.08838295113289
STARLINK-3226           
1 49740U 21115S   23356.55824730  .00001146  00000+0  90074-4 0  9992
2 49740  53.2153 176.9352 0001317  95.2005 264.9137 15.08843068113539
STARLINK-3244           
1 49741U 21115T   23354.83233074  .00001086  00000+0  86320-4 0  9999
2 49741  53.2158 184.7224 0001469 106.5128 253.6026 15.08836628113277
STARLINK-3202           
1 49742U 21115U   23354.84609002  .00001510  00000+0  11293-3 0  9997
2 49742  53.2153 184.6491 0001489  97.3453 262.7708 15.08842885113278
STARLINK-3239           
1 49743U 21115V   23355.62352205  .00001546  00000+0  11523-3 0  9990
2 49743  53.2163 181.0909 0001363 105.0186 255.0957 15.08838505113394
STARLINK-3231           
1 49744U 21115W   23355.63824449  .00005225  00000+0  34624-3 0  9991
2 49744  53.2150 180.9867 0001702  70.4825 289.6351 15.08827114114503
STARLINK-3241           
1 49745U 21115X   23354.77344803 -.00000017  00000+0  16993-4 0  9992
2 49745  53.2157 184.9470 0001282  93.1009 267.0130 15.08835967113266
STARLINK-3233           
1 49746U 21115Y   23354.86080811  .00001635  00000+0  12076-3 0  9992
2 49746  53.2161 184.5876 0001417  79.2866 280.8285 15.08847165113272
STARLINK-3247           
1 49747U 21115Z   23355.84337608  .00001452  00000+0  10932-3 0  9997
2 49747  53.2158 180.1751 0001457  76.4095 283.7059 15.08840521114530
STARLINK-3248           
1 49748U 21115AA  23355.66401010  .00000191  00000+0  30070-4 0  9992
2 49748  53.2156 180.9946 0001368  87.8513 272.2636 15.08840906113401
STARLINK-3250           
1 49749U 21115AB  23355.67507934  .00004077  00000+0  27404-3 0  9999
2 49749  53.2153 181.1656 0001356  80.6816 279.4329 15.08845156113392
STARLINK-3236           
1 49750U 21115AC  23355.67136552  .00001176  00000+0  91962-4 0  9993
2 49750  53.2162 180.9537 0001403  97.6395 262.4757 15.08841649113404
